SES-2                   
1 37809U 11049A   26074.19311104 -.00000197  00000+0  00000+0 0  9997
2 37809   0.0369  74.0461 0002814 282.7933 158.4729  1.00272266 53020
QUETZSAT 1              
1 37826U 11054A   26074.26634469 -.00000242  00000+0  00000+0 0  9993
2 37826   0.0299 282.5185 0002737  86.1374 183.0722  1.00269915 48937
SES-4                   
1 38087U 12007A   26074.13461080 -.00000169  00000+0  00000+0 0  9993
2 38087   0.0320  63.2592 0002320 285.0691 210.8636  1.00273193 51286
SES-5                   
1 38652U 12036A   26074.28255144  .00000033  00000+0  00000+0 0  9990
2 38652   0.0644 306.6859 0001793  47.2719 285.6198  1.00271747 43518
ASTRA 2F                
1 38778U 12051A   26074.25391950  .00000149  00000+0  00000+0 0  9997
2 38778   0.0719 256.3917 0001994  24.4735  11.5782  1.00272783 40191
SES-6                   
1 39172U 13026A   26074.28617308 -.00000262  00000+0  00000+0 0  9997
2 39172   0.0475 302.9434 0002046  72.4992 219.9559  1.00270718 46781
O3B FM5                 
1 39188U 13031A   26074.09157039 -.00000020  00000+0  00000+0 0  9991
2 39188   0.0995  11.2024 0003286 333.8033  14.9812  5.00116494232334
O3B FM4                 
1 39189U 13031B   26072.41173487 -.00000022  00000+0  00000+0 0  9993
2 39189   0.0547 345.1246 0005098  15.5435 359.3289  5.00115278232249
O3B FM2                 
1 39190U 13031C   26073.87663637 -.00000020  00000+0  00000+0 0  9995
2 39190   0.0549 338.8631 0002826  11.4299   9.6981  5.00115986232395
O3B PFM                 
1 39191U 13031D   26065.09556941 -.00000026  00000+0  00000+0 0  9996
2 39191   0.0668   7.2787 0005147 352.3292   0.3862  5.00115906231517
ASTRA 2E                
1 39285U 13056A   26073.95396749  .00000149  00000+0  00000+0 0  9994
2 39285   0.0881  45.7219 0002613 301.8006 196.9541  1.00269254 45478
SES-8                   
1 39460U 13071A   26074.08651060 -.00000270  00000+0  00000+0 0  9997
2 39460   0.0369 262.8689 0001889 124.4065 271.5643  1.00272936 43499
ASTRA 5B                
1 39617U 14011B   26074.13447385  .00000136  00000+0  00000+0 0  9995
2 39617   0.0952 297.1875 0003788  38.2302 269.2327  1.00269723 43724
O3B FM3                 
1 40079U 14038A   26074.15726844 -.00000019  00000+0  00000+0 0  9991
2 40079   0.0529 353.7505 0000656  63.7945 302.4581  5.00115598208330
O3B FM7                 
1 40080U 14038B   26072.30434378 -.00000022  00000+0  00000+0 0  9990
2 40080   0.0586 348.6070 0004384 352.5506  18.8225  5.00115635213082
O3B FM6                 
1 40081U 14038C   26074.13036311 -.00000019  00000+0  00000+0 0  9995
2 40081   0.0547 351.3156 0002640   0.9701   7.7068  5.00115707213127
O3B FM8                 
1 40082U 14038D   26074.18367462 -.00000019  00000+0  00000+0 0  9995
2 40082   0.0555 350.6080 0002647   5.3351   4.0513  5.00115993213247
